{"type": "FeatureCollection", "features": [{"type": "Feature", "properties": {"name": "TP Huế", "osm_id": 19324114, "osm_display_name": "Phường Thuận Hóa, Thành phố Huế, Việt Nam"}, "geometry": {"type": "Polygon", "coordinates": [[[107.5534674, 16.452757], [107.5539798, 16.4513826], [107.5540421, 16.4511703], [107.5540844, 16.4510657], [107.5541316, 16.4509631], [107.5541836, 16.4508626], [107.5542259, 16.4507884], [107.5542708, 16.4507157], [107.5544827, 16.4504234], [107.554595, 16.4502552], [107.5547335, 16.4500128], [107.5549011, 16.4496899], [107.5551311, 16.449241], [107.5554898, 16.4486288], [107.5555824, 16.4485696], [107.5558358, 16.4486442], [107.5559043, 16.4486103], [107.5559755, 16.4485824], [107.5560491, 16.4485606], [107.5561184, 16.4485461], [107.5561888, 16.4485371], [107.5562596, 16.4485336], [107.5564286, 16.4485272], [107.5566043, 16.448531], [107.5568631, 16.4486416], [107.5569097, 16.4486582], [107.5569583, 16.4486674], [107.5570019, 16.4486692], [107.5570454, 16.4486651], [107.5570878, 16.4486552], [107.5572648, 16.4486246], [107.5574691, 16.4485656], [107.5575524, 16.448546], [107.5576514, 16.4485344], [107.5579978, 16.4485361], [107.5580255, 16.4485399], [107.5580575, 16.4485513], [107.5580838, 16.4485681], [107.558097, 16.44858], [107.5582416, 16.4487574], [107.5583266, 16.4488338], [107.5584138, 16.4488929], [107.5585164, 16.4489298], [107.558503, 16.449032], [107.5585091, 16.4491774], [107.5585359, 16.4493722], [107.5585614, 16.4495182], [107.5586076, 16.4497047], [107.5586425, 16.4498166], [107.5586666, 16.4498623], [107.5586908, 16.4498899], [107.5587364, 16.4499587], [107.5587491, 16.4500147], [107.5587505, 16.4500566], [107.5587324, 16.4503203], [107.5586814, 16.4504578], [107.5589925, 16.450589], [107.5591696, 16.4506533], [107.559242, 16.4506584], [107.5595263, 16.450643], [107.5598428, 16.4506456], [107.5599125, 16.4506739], [107.5599876, 16.4506782], [107.5600466, 16.4506816], [107.5605276, 16.4506534], [107.56067, 16.4507747], [107.5607349, 16.4507764], [107.5608545, 16.4507795], [107.5611904, 16.4507787], [107.5614289, 16.4508393], [107.5616798, 16.4509377], [107.5618764, 16.4509526], [107.5621035, 16.4509547], [107.5621095, 16.451106], [107.5620948, 16.4513105], [107.5621873, 16.4513144], [107.562221, 16.4513212], [107.5622524, 16.451335], [107.562276, 16.4513516], [107.5622959, 16.4513723], [107.5623128, 16.4513965], [107.5623335, 16.4514179], [107.5623595, 16.4514372], [107.5623885, 16.451452], [107.5624294, 16.4514578], [107.5625045, 16.4514488], [107.5625289, 16.4514537], [107.5625521, 16.4514623], [107.5625798, 16.4514789], [107.5626031, 16.4515009], [107.5626352, 16.4515202], [107.5626701, 16.4515343], [107.5627039, 16.4515426], [107.5627386, 16.451546], [107.5627734, 16.4515446], [107.5628507, 16.4515528], [107.5629273, 16.4515661], [107.5630027, 16.4515845], [107.5630974, 16.4516156], [107.5631889, 16.4516547], [107.5632763, 16.4517015], [107.5638919, 16.4519253], [107.5641829, 16.4520591], [107.5643847, 16.4521739], [107.5645215, 16.4522771], [107.5646969, 16.4526845], [107.564772, 16.4526626], [107.5648333, 16.4526388], [107.5648523, 16.4526359], [107.5648715, 16.4526366], [107.5648932, 16.452642], [107.564913, 16.452652], [107.5649346, 16.4526662], [107.5649778, 16.4526909], [107.5650276, 16.4527117], [107.5650907, 16.4527317], [107.5651555, 16.4527456], [107.5651321, 16.452917], [107.5669449, 16.4532784], [107.5679504, 16.4534765], [107.5683329, 16.4536186], [107.5688177, 16.4537684], [107.5691818, 16.4538627], [107.569786, 16.4539762], [107.5710037, 16.4543292], [107.5709595, 16.4546103], [107.5715465, 16.4547434], [107.571562, 16.4546791], [107.5719351, 16.4547832], [107.5721274, 16.4545269], [107.5737342, 16.4523855], [107.5746955, 16.4530344], [107.577667, 16.4490622], [107.57776, 16.4491288], [107.577798, 16.4490879], [107.5778286, 16.4490417], [107.5778455, 16.4490064], [107.5778581, 16.4489696], [107.577897, 16.4488423], [107.5779882, 16.4484281], [107.5782631, 16.4474069], [107.5784314, 16.4467419], [107.5786816, 16.4461206], [107.5787688, 16.4458618], [107.5789887, 16.4452087], [107.5791737, 16.4447051], [107.5799717, 16.4428343], [107.5802751, 16.4418021], [107.5805641, 16.4407119], [107.5805879, 16.4404907], [107.5805926, 16.4404375], [107.5805926, 16.4403841], [107.5805879, 16.4403309], [107.5805744, 16.4402603], [107.5805527, 16.4401916], [107.5800575, 16.4390539], [107.5796948, 16.4383278], [107.5795596, 16.4380667], [107.5797437, 16.4379124], [107.5795171, 16.4375953], [107.5793454, 16.4373728], [107.5792059, 16.4371682], [107.5794339, 16.4366023], [107.5795546, 16.4366254], [107.5796472, 16.4364074], [107.5798631, 16.4358035], [107.5798647, 16.435517], [107.5800307, 16.4355211], [107.5800759, 16.4355223], [107.5801206, 16.435516], [107.5801656, 16.4355015], [107.5802071, 16.4354793], [107.5803117, 16.4354002], [107.5803516, 16.4353798], [107.5803948, 16.4353668], [107.5804294, 16.435362], [107.5804644, 16.4353618], [107.5804991, 16.4353665], [107.5807576, 16.4354034], [107.5808562, 16.4348857], [107.5842351, 16.435617], [107.5842416, 16.4356562], [107.5842559, 16.4356935], [107.5842772, 16.4357269], [107.5843048, 16.4357558], [107.5843377, 16.435779], [107.5843853, 16.4358035], [107.5844342, 16.4358253], [107.5845086, 16.4358525], [107.5845851, 16.4358736], [107.5848131, 16.4359326], [107.5848485, 16.4359038], [107.5851115, 16.4360479], [107.5853254, 16.4361585], [107.5855359, 16.436282], [107.5857908, 16.4365457], [107.5858279, 16.4365875], [107.5858578, 16.4366344], [107.5858741, 16.4366699], [107.5858862, 16.436707], [107.585894, 16.436745], [107.5859141, 16.436893], [107.5859165, 16.4369237], [107.5859249, 16.4369534], [107.5859436, 16.4369882], [107.5859705, 16.4370177], [107.5859906, 16.437055], [107.5860007, 16.4370846], [107.5860066, 16.4371153], [107.586008, 16.4371464], [107.586008, 16.4372326], [107.5860134, 16.4372641], [107.5860241, 16.4372943], [107.5860372, 16.4373184], [107.5860536, 16.4373406], [107.5860667, 16.437361], [107.5860764, 16.4373831], [107.5860829, 16.4374097], [107.5860845, 16.4374371], [107.5860952, 16.4374628], [107.5861166, 16.4374924], [107.5861649, 16.437558], [107.5861764, 16.4375806], [107.586185, 16.4376043], [107.5861908, 16.4376304], [107.5861931, 16.437657], [107.5862013, 16.4377095], [107.5862168, 16.4377604], [107.5862394, 16.4378088], [107.5862735, 16.4378604], [107.5863157, 16.4379062], [107.5863647, 16.4379452], [107.5864122, 16.4379779], [107.586457, 16.438014], [107.5864989, 16.4380532], [107.5865537, 16.438115], [107.5866013, 16.4381822], [107.586641, 16.4382539], [107.5866786, 16.4383259], [107.5867081, 16.4383658], [107.5867389, 16.4384635], [107.586814, 16.4385986], [107.5868717, 16.4387671], [107.5869025, 16.4388263], [107.5869924, 16.438924], [107.5870105, 16.4389713], [107.5870219, 16.4390205], [107.5870264, 16.4390732], [107.5870232, 16.439126], [107.5870333, 16.4391864], [107.5871768, 16.4393318], [107.5871426, 16.4393819], [107.5871812, 16.4394174], [107.5872158, 16.4394566], [107.5872459, 16.439499], [107.5872738, 16.4395496], [107.5872953, 16.439603], [107.5873102, 16.4396585], [107.587329, 16.4397948], [107.5873373, 16.4399124], [107.5873384, 16.4400302], [107.5880411, 16.4411454], [107.5884019, 16.4418024], [107.5887472, 16.4425114], [107.5889304, 16.4428363], [107.5889827, 16.4429142], [107.5890429, 16.4429867], [107.5891065, 16.4430497], [107.589176, 16.4431067], [107.5892508, 16.4431571], [107.5894314, 16.4432524], [107.5897155, 16.4434022], [107.5898295, 16.4434475], [107.5899468, 16.4434842], [107.5900668, 16.443512], [107.5901886, 16.4435308], [107.5903116, 16.4435404], [107.590434, 16.4435409], [107.5905561, 16.4435322], [107.5906772, 16.4435146], [107.5907964, 16.443488], [107.5911962, 16.4433325], [107.5913101, 16.4432909], [107.5914267, 16.4432575], [107.5915163, 16.4432377], [107.5916068, 16.4432227], [107.5915629, 16.4433629], [107.5915412, 16.4434205], [107.5915146, 16.4434761], [107.5914763, 16.4435399], [107.5914314, 16.4435996], [107.5913107, 16.443754], [107.5912748, 16.4438082], [107.591245, 16.4438659], [107.5912304, 16.4439015], [107.5912182, 16.4439379], [107.5912103, 16.4439709], [107.5911941, 16.4440009], [107.5911779, 16.4440196], [107.5911584, 16.4440352], [107.5911364, 16.4440472], [107.5910278, 16.4440819], [107.5909802, 16.4440954], [107.5909352, 16.4441152], [107.5908937, 16.4441411], [107.590863, 16.4441663], [107.5908356, 16.4441947], [107.5908118, 16.444226], [107.5907935, 16.4442544], [107.5907714, 16.4442802], [107.5907461, 16.4443032], [107.5907085, 16.4443283], [107.590667, 16.4443469], [107.5906147, 16.4443613], [107.5905611, 16.4443701], [107.5905135, 16.444373], [107.5904658, 16.4443714], [107.5904114, 16.4443661], [107.5903568, 16.4443652], [107.5903022, 16.4443688], [107.5902502, 16.4443764], [107.590199, 16.4443881], [107.590178, 16.4444018], [107.5901597, 16.4444187], [107.5901446, 16.4444382], [107.5901313, 16.4444649], [107.5901239, 16.4444935], [107.5901229, 16.4445175], [107.590126, 16.4445413], [107.5901332, 16.4445643], [107.5901464, 16.444589], [107.5901642, 16.4446108], [107.590186, 16.4446289], [107.590211, 16.4446428], [107.5902555, 16.4446771], [107.5902969, 16.4447148], [107.5903478, 16.4447714], [107.5904799, 16.4449521], [107.5904977, 16.4449932], [107.5905088, 16.4450363], [107.5905125, 16.4450703], [107.5905121, 16.4451045], [107.5905088, 16.4451675], [107.5905042, 16.4452093], [107.5905074, 16.4452511], [107.5905153, 16.4452833], [107.5905278, 16.445314], [107.5905446, 16.4453428], [107.5905557, 16.4453673], [107.5905644, 16.4453926], [107.5905719, 16.4454245], [107.5905758, 16.4454569], [107.5906167, 16.4457121], [107.5906282, 16.4457437], [107.5906441, 16.4457751], [107.590667, 16.4458023], [107.590692, 16.4458216], [107.5907206, 16.4458357], [107.5907515, 16.4458441], [107.5908823, 16.4458608], [107.5909238, 16.445865], [107.5909647, 16.445873], [107.5910217, 16.445891], [107.5910507, 16.4459094], [107.5910747, 16.4459335], [107.5910933, 16.4459634], [107.5911042, 16.4459965], [107.5911914, 16.4462583], [107.5913523, 16.4466107], [107.5913622, 16.4466416], [107.5913654, 16.4466738], [107.5913617, 16.4467059], [107.5913513, 16.4467368], [107.5913345, 16.4467651], [107.5913121, 16.4467895], [107.5911981, 16.4469091], [107.5911777, 16.4469396], [107.5911615, 16.4469724], [107.5911498, 16.4470069], [107.5911416, 16.4470536], [107.5911416, 16.447101], [107.5911498, 16.4471477], [107.5911679, 16.4472313], [107.5911717, 16.4472704], [107.5911706, 16.4473096], [107.5911646, 16.4473483], [107.5911503, 16.4473952], [107.5911289, 16.4474395], [107.5911009, 16.4474802], [107.5910122, 16.4475617], [107.5909178, 16.4476371], [107.5908311, 16.4476976], [107.5907408, 16.4477529], [107.590686, 16.4478022], [107.5906354, 16.4478555], [107.5905892, 16.4479124], [107.5905383, 16.447988], [107.5904953, 16.448068], [107.5904826, 16.448126], [107.5904772, 16.448185], [107.5904793, 16.4482442], [107.5904902, 16.4483087], [107.59051, 16.4483713], [107.5905383, 16.4484307], [107.5908454, 16.4487664], [107.5908699, 16.4488024], [107.5908896, 16.448841], [107.5909038, 16.4488802], [107.5909131, 16.4489208], [107.5909255, 16.4489558], [107.5909444, 16.4489881], [107.5909691, 16.4490166], [107.5910008, 16.4490414], [107.5910369, 16.4490599], [107.591076, 16.4490712], [107.5911297, 16.4490967], [107.5911788, 16.4491295], [107.5912222, 16.449169], [107.591254, 16.4492071], [107.5912805, 16.4492488], [107.5913013, 16.4492933], [107.5913161, 16.4493401], [107.5913419, 16.4494713], [107.5913562, 16.4495119], [107.5913756, 16.4495504], [107.5913999, 16.4495864], [107.5914329, 16.4496232], [107.5914709, 16.4496551], [107.5915132, 16.4496816], [107.5915748, 16.4497201], [107.5916339, 16.4497619], [107.5917182, 16.4498307], [107.5917962, 16.449906], [107.5918442, 16.4499548], [107.5918886, 16.4500068], [107.591929, 16.4500616], [107.5919692, 16.4501258], [107.5920041, 16.4501928], [107.592098, 16.4504784], [107.5921056, 16.4505115], [107.59211, 16.4505452], [107.5921113, 16.4505826], [107.5921087, 16.4506198], [107.5920832, 16.450971], [107.5921342, 16.4514237], [107.5921472, 16.4514803], [107.592165, 16.4515356], [107.5921915, 16.4515974], [107.592224, 16.4516565], [107.5924748, 16.4520488], [107.5924954, 16.4520871], [107.592512, 16.4521271], [107.5925244, 16.4521684], [107.5925331, 16.4522135], [107.5925368, 16.4522592], [107.5925357, 16.4523051], [107.5925231, 16.4524385], [107.5925124, 16.4525138], [107.5925109, 16.4525363], [107.5925137, 16.4525588], [107.5925205, 16.4525801], [107.5925311, 16.4525999], [107.5925512, 16.452631], [107.5926331, 16.4527581], [107.5926595, 16.4528023], [107.5926771, 16.4528385], [107.5926819, 16.4528485], [107.5927001, 16.4528964], [107.5927172, 16.45296], [107.5927269, 16.453025], [107.5927229, 16.4532668], [107.5927183, 16.4533212], [107.5927187, 16.4533758], [107.5927243, 16.4534302], [107.5927375, 16.4534941], [107.5927578, 16.4535562], [107.5927755, 16.4535765], [107.5927968, 16.4535934], [107.5928208, 16.4536064], [107.5928561, 16.453617], [107.5928931, 16.4536191], [107.5929295, 16.4536128], [107.593109, 16.4535665], [107.5931789, 16.4535485], [107.5932586, 16.4535275], [107.5933398, 16.4535125], [107.5934107, 16.4535044], [107.593482, 16.4535009], [107.5935091, 16.4535024], [107.5935345, 16.4535117], [107.5935557, 16.4535279], [107.5935684, 16.4535447], [107.5935765, 16.453564], [107.5935795, 16.4535845], [107.5935772, 16.4536051], [107.5935658, 16.4536951], [107.5935489, 16.453787], [107.5935269, 16.4538778], [107.5935318, 16.453913], [107.5935417, 16.4539472], [107.5935465, 16.453958], [107.5935554, 16.4539781], [107.5935669, 16.4539969], [107.5935731, 16.454007], [107.5935946, 16.4540334], [107.5936979, 16.454144], [107.5937502, 16.4542096], [107.5937583, 16.4542348], [107.5937609, 16.4542611], [107.5937567, 16.4542922], [107.5937448, 16.4543215], [107.5937152, 16.4543749], [107.5936912, 16.454418], [107.5936787, 16.4544636], [107.5936753, 16.4544961], [107.5936738, 16.4545106], [107.5936755, 16.4545443], [107.593676, 16.4545536], [107.5936845, 16.4545959], [107.5936992, 16.4546366], [107.5937502, 16.454818], [107.5937757, 16.4549736], [107.5937773, 16.4550155], [107.593773, 16.4550572], [107.5937621, 16.4551006], [107.5937448, 16.4551421], [107.5937337, 16.455205], [107.5937301, 16.4552688], [107.593734, 16.4553325], [107.5937455, 16.4553955], [107.5937624, 16.4554437], [107.5938079, 16.455573], [107.5940748, 16.4560984], [107.5942336, 16.4559972], [107.5943288, 16.4559498], [107.5944263, 16.4559071], [107.5945259, 16.4558691], [107.594636, 16.4558333], [107.594748, 16.4558033], [107.5948615, 16.4557792], [107.5961623, 16.455513], [107.5962907, 16.4554986], [107.5964198, 16.4554928], [107.596549, 16.4554956], [107.5966787, 16.4555072], [107.5968073, 16.4555275], [107.5969341, 16.4555563], [107.5974798, 16.4557062], [107.5976036, 16.4557402], [107.5978185, 16.4558131], [107.59803, 16.4558948], [107.598231, 16.4559819], [107.5984281, 16.4560769], [107.5994967, 16.4566531], [107.5996203, 16.4567049], [107.5997466, 16.4567501], [107.5998754, 16.4567888], [107.6000212, 16.4568238], [107.600169, 16.4568503], [107.6003182, 16.4568682], [107.6009556, 16.4568731], [107.6011346, 16.4568678], [107.601313, 16.4568531], [107.6014626, 16.4568335], [107.6016111, 16.4568073], [107.601632, 16.4570352], [107.6016789, 16.4577525], [107.6016449, 16.4580636], [107.60162, 16.4585269], [107.6015276, 16.4585963], [107.6015157, 16.4587199], [107.6014008, 16.458743], [107.6012966, 16.4588935], [107.6012456, 16.4597688], [107.600267, 16.459728], [107.6002575, 16.4599906], [107.5996462, 16.4599757], [107.5998013, 16.4611546], [107.599853, 16.4615148], [107.5999577, 16.4620648], [107.6000772, 16.4626062], [107.6001151, 16.463121], [107.6001474, 16.4639615], [107.6001506, 16.4644705], [107.600097, 16.4648498], [107.6000256, 16.465141], [107.5999203, 16.4655025], [107.5996451, 16.4663704], [107.5992806, 16.467256], [107.5989646, 16.4678984], [107.5988913, 16.4681116], [107.5988623, 16.4682639], [107.5988386, 16.4684792], [107.5988401, 16.4686726], [107.5988657, 16.4688748], [107.5991591, 16.4703843], [107.5993719, 16.4707212], [107.5998476, 16.4713831], [107.5996214, 16.4715925], [107.5993903, 16.4717971], [107.5991547, 16.4719967], [107.5989144, 16.4721912], [107.5986948, 16.4723616], [107.5984718, 16.4725277], [107.5982453, 16.4726895], [107.5980598, 16.472811], [107.597869, 16.4729245], [107.597673, 16.4730299], [107.5974725, 16.4731268], [107.5972676, 16.4732152], [107.5970646, 16.4732927], [107.5968582, 16.4733618], [107.596649, 16.4734224], [107.5965287, 16.4734466], [107.5964675, 16.4734589], [107.5962846, 16.4734884], [107.5961007, 16.4735109], [107.5959159, 16.4735263], [107.5957311, 16.4735346], [107.595546, 16.4735358], [107.5953611, 16.4735299], [107.5951765, 16.4735169], [107.5949847, 16.4734952], [107.5947939, 16.4734669], [107.5946042, 16.4734322], [107.5944159, 16.4733912], [107.5942293, 16.4733437], [107.5940446, 16.47329], [107.5938619, 16.47323], [107.5936816, 16.4731639], [107.5935038, 16.4730917], [107.5933288, 16.4730135], [107.5931304, 16.4729078], [107.5929356, 16.4727961], [107.5927446, 16.4726784], [107.5925577, 16.4725548], [107.5923751, 16.4724256], [107.5921894, 16.4722849], [107.5920088, 16.4721384], [107.5918334, 16.4719861], [107.5916634, 16.4718282], [107.591499, 16.471665], [107.5913405, 16.4714965], [107.5911879, 16.4713231], [107.5888649, 16.4688712], [107.588041, 16.4680009], [107.5861703, 16.4661437], [107.5859234, 16.4659074], [107.5856695, 16.4656781], [107.5854089, 16.4654558], [107.5851417, 16.4652409], [107.5849106, 16.4650648], [107.5846751, 16.4648943], [107.5844354, 16.4647293], [107.5841915, 16.4645699], [107.5837472, 16.4642844], [107.5832978, 16.4640063], [107.5828434, 16.4637357], [107.5823841, 16.4634728], [107.5819202, 16.4632175], [107.5814517, 16.46297], [107.5809789, 16.4627304], [107.5805057, 16.4625005], [107.5800285, 16.4622785], [107.5795474, 16.4620645], [107.5790625, 16.4618584], [107.578574, 16.4616603], [107.578082, 16.4614704], [107.5775867, 16.4612885], [107.5770882, 16.4611149], [107.5768383, 16.4610299], [107.5765866, 16.4609496], [107.5762492, 16.4608503], [107.5759092, 16.4607596], [107.575771, 16.4607265], [107.5755667, 16.4606776], [107.5750844, 16.4605699], [107.5745954, 16.4604868], [107.5741082, 16.4603947], [107.5736229, 16.4602936], [107.5731398, 16.4601835], [107.572659, 16.4600646], [107.5721837, 16.4599376], [107.571711, 16.459802], [107.5712412, 16.4596576], [107.5707743, 16.4595047], [107.5676443, 16.4582817], [107.5658181, 16.4575682], [107.5645664, 16.4570791], [107.5617328, 16.4560128], [107.5613531, 16.45587], [107.5574395, 16.4543903], [107.5541836, 16.453043], [107.5534674, 16.452757]]]}}, {"type": "Feature", "properties": {"name": "Hương Thủy", "osm_id": 19325232, "osm_display_name": "Phường Hương Thủy, Thành phố Huế, Việt Nam"}, "geometry": {"type": "Polygon", "coordinates": [[[107.650624, 16.437667], [107.651144, 16.432882], [107.653994, 16.430333], [107.653774, 16.429946], [107.653585, 16.428766], [107.653902, 16.425932], [107.653776, 16.425136], [107.652781, 16.423989], [107.651998, 16.421849], [107.652613, 16.421325], [107.652751, 16.420967], [107.652753, 16.420181], [107.652478, 16.419178], [107.652915, 16.418703], [107.653873, 16.418112], [107.654083, 16.41765], [107.653603, 16.416324], [107.65369, 16.412469], [107.653325, 16.409354], [107.653019, 16.408572], [107.653177, 16.407817], [107.652969, 16.407531], [107.653339, 16.405597], [107.653032, 16.40523], [107.653183, 16.404918], [107.65276, 16.403579], [107.652705, 16.40207], [107.652854, 16.401827], [107.652773, 16.401586], [107.653084, 16.40112], [107.652814, 16.400103], [107.65323, 16.399716], [107.653813, 16.39871], [107.654515, 16.395977], [107.654666, 16.395044], [107.654515, 16.394498], [107.654711, 16.394144], [107.654531, 16.391958], [107.653947, 16.390745], [107.653683, 16.388942], [107.653884, 16.38823], [107.653285, 16.387257], [107.654258, 16.387037], [107.654844, 16.386138], [107.654506, 16.385251], [107.655452, 16.382701], [107.655271, 16.38111], [107.654954, 16.380567], [107.655626, 16.379629], [107.655381, 16.378766], [107.655541, 16.377933], [107.655333, 16.377608], [107.655845, 16.37475], [107.655766, 16.374389], [107.656047, 16.37378], [107.656118, 16.37295], [107.6564, 16.372696], [107.656236, 16.372168], [107.656273, 16.370011], [107.65608, 16.369607], [107.656052, 16.36872], [107.656306, 16.368121], [107.656886, 16.367568], [107.656241, 16.366428], [107.656294, 16.36441], [107.656728, 16.363076], [107.656592, 16.362527], [107.655793, 16.361203], [107.655217, 16.361141], [107.65566, 16.359676], [107.6555, 16.358906], [107.6555783, 16.3582323], [107.655661, 16.357521], [107.655575, 16.356235], [107.65532, 16.355158], [107.655806, 16.354019], [107.656905, 16.353906], [107.657434, 16.353313], [107.657998, 16.353012], [107.659199, 16.352771], [107.659549, 16.352885], [107.660181, 16.354944], [107.661374, 16.356185], [107.661923, 16.357595], [107.663356, 16.358658], [107.663373, 16.359529], [107.663609, 16.360019], [107.664859, 16.361148], [107.666372, 16.361809], [107.666527, 16.362372], [107.667205, 16.362829], [107.66764, 16.366741], [107.668079, 16.368154], [107.667704, 16.370658], [107.66809, 16.371226], [107.66769, 16.372473], [107.668256, 16.374009], [107.668236, 16.374629], [107.667919, 16.374833], [107.668659, 16.377148], [107.668322, 16.380059], [107.667859, 16.380136], [107.667516, 16.380866], [107.667832, 16.381371], [107.668047, 16.381376], [107.668169, 16.381917], [107.668401, 16.385124], [107.668957, 16.385986], [107.668727, 16.386763], [107.66894, 16.387306], [107.668623, 16.387846], [107.667226, 16.387827], [107.667039, 16.388218], [107.666427, 16.388612], [107.664476, 16.388691], [107.664293, 16.389289], [107.663701, 16.389978], [107.663528, 16.390929], [107.663573, 16.400831], [107.663277, 16.401434], [107.662995, 16.403417], [107.663259, 16.405187], [107.661919, 16.406967], [107.662011, 16.407297], [107.662663, 16.407233], [107.662861, 16.407641], [107.663729, 16.408077], [107.664478, 16.41006], [107.664777, 16.410365], [107.665527, 16.411997], [107.665753, 16.413131], [107.665341, 16.417592], [107.663112, 16.419442], [107.663579, 16.419975], [107.665223, 16.418844], [107.665432, 16.420001], [107.667609, 16.418979], [107.667737, 16.419111], [107.668259, 16.418923], [107.668199, 16.41878], [107.668587, 16.418329], [107.668753, 16.418424], [107.668985, 16.418146], [107.669125, 16.418368], [107.6696, 16.417995], [107.66968, 16.41821], [107.671245, 16.417789], [107.671164, 16.417461], [107.671714, 16.417143], [107.671779, 16.417253], [107.67293, 16.417151], [107.674049, 16.416913], [107.674852, 16.416322], [107.675169, 16.416621], [107.675233, 16.418026], [107.677144, 16.41786], [107.677667, 16.41761], [107.677599, 16.417475], [107.677956, 16.417349], [107.677914, 16.416106], [107.678141, 16.414973], [107.67874, 16.415206], [107.678811, 16.414758], [107.6797, 16.414899], [107.679947, 16.414542], [107.680022, 16.413993], [107.680526, 16.414144], [107.680538, 16.414019], [107.681001, 16.414057], [107.68107, 16.413509], [107.682484, 16.413787], [107.682862, 16.413585], [107.682725, 16.413288], [107.682909, 16.413221], [107.683008, 16.41358], [107.683233, 16.41367], [107.683704, 16.412607], [107.683504, 16.412409], [107.683584, 16.412234], [107.6844763, 16.4113089], [107.685649, 16.410093], [107.686402, 16.410169], [107.68718, 16.410025], [107.68749, 16.409669], [107.687586, 16.409214], [107.687267, 16.408483], [107.688554, 16.4071], [107.691657, 16.404926], [107.690916, 16.40338], [107.692125, 16.403425], [107.693371, 16.404063], [107.7023845, 16.403599], [107.703862, 16.403523], [107.705747, 16.403251], [107.70561, 16.401177], [107.709573, 16.400954], [107.709532, 16.399645], [107.707606, 16.399695], [107.707743, 16.396109], [107.708665, 16.394763], [107.709103, 16.394326], [107.709373, 16.39445], [107.709491, 16.394266], [107.7130826, 16.3941624], [107.714485, 16.394122], [107.714472, 16.393917], [107.715135, 16.393879], [107.717048, 16.394043], [107.717224, 16.393322], [107.7182, 16.393191], [107.718169, 16.392922], [107.718337, 16.392986], [107.718687, 16.392365], [107.718351, 16.391929], [107.71833, 16.391346], [107.718844, 16.391234], [107.718663, 16.390358], [107.71917, 16.390202], [107.719603, 16.390923], [107.719951, 16.390964], [107.720173, 16.390582], [107.722122, 16.389723], [107.723525, 16.389604], [107.725315, 16.392423], [107.725592, 16.393249], [107.729149, 16.394079], [107.730074, 16.39499], [107.730851, 16.395036], [107.73132, 16.396032], [107.732795, 16.395729], [107.735129, 16.396219], [107.735172, 16.396222], [107.736187, 16.396913], [107.735705, 16.39773], [107.734977, 16.399379], [107.734792, 16.400547], [107.733989, 16.404269], [107.733609, 16.405807], [107.7332462, 16.4070276], [107.733132, 16.407412], [107.732516, 16.408789], [107.731802, 16.409782], [107.730987, 16.410509], [107.728195, 16.412311], [107.727146, 16.412892], [107.72419, 16.414249], [107.72057, 16.415646], [107.719526, 16.416123], [107.7178655, 16.4169896], [107.717562, 16.417148], [107.716341, 16.417948], [107.714269, 16.419651], [107.713696, 16.420378], [107.713067, 16.421479], [107.712586, 16.422657], [107.712399, 16.423307], [107.712275, 16.424249], [107.712256, 16.424829], [107.712451, 16.427325], [107.7124531, 16.4277632], [107.712454, 16.427961], [107.712173, 16.429138], [107.711972, 16.429628], [107.711737, 16.430029], [107.711065, 16.430854], [107.709835, 16.432013], [107.708655, 16.432911], [107.708116, 16.433262], [107.706378, 16.434673], [107.705908, 16.434771], [107.703542, 16.435037], [107.700819, 16.435562], [107.69952, 16.435526], [107.698041, 16.435058], [107.689321, 16.431262], [107.6891413, 16.4312239], [107.687804, 16.43094], [107.687034, 16.431112], [107.68456, 16.432345], [107.68307, 16.433944], [107.678152, 16.439984], [107.6773076, 16.4407792], [107.674945, 16.443004], [107.6740792, 16.4431997], [107.67331, 16.443241], [107.669402, 16.442553], [107.666162, 16.442986], [107.666101, 16.443265], [107.664648, 16.444267], [107.66363, 16.445438], [107.661735, 16.449551], [107.660568, 16.451265], [107.658906, 16.45183], [107.654209, 16.451962], [107.6540664, 16.4520485], [107.652409, 16.44476], [107.651036, 16.440362], [107.650624, 16.437667]]]}}, {"type": "Feature", "properties": {"name": "Hương Trà", "osm_id": 19325229, "osm_display_name": "Phường Hương Trà, Thành phố Huế, Việt Nam"}, "geometry": {"type": "Polygon", "coordinates": [[[107.366029, 16.402001], [107.366293, 16.401169], [107.369581, 16.398655], [107.370065, 16.397765], [107.371129, 16.397309], [107.371215, 16.396307], [107.371875, 16.395106], [107.371852, 16.394279], [107.372333, 16.393266], [107.373904, 16.391748], [107.374856, 16.391776], [107.374756, 16.391136], [107.375003, 16.389112], [107.375477, 16.388726], [107.376246, 16.38943], [107.376555, 16.389329], [107.376211, 16.388318], [107.376332, 16.38732], [107.375861, 16.386977], [107.375492, 16.386192], [107.375219, 16.385899], [107.374897, 16.385834], [107.374658, 16.386371], [107.374465, 16.386409], [107.373768, 16.385952], [107.375596, 16.384801], [107.376822, 16.385472], [107.376404, 16.383883], [107.376722, 16.38399], [107.377368, 16.383839], [107.377515, 16.384358], [107.377913, 16.384249], [107.378226, 16.38488], [107.379038, 16.384307], [107.379004, 16.383767], [107.379652, 16.383719], [107.379367, 16.383178], [107.379595, 16.382456], [107.379072, 16.382253], [107.378835, 16.381399], [107.378665, 16.381681], [107.377993, 16.381584], [107.378231, 16.381127], [107.377218, 16.380066], [107.377667, 16.379719], [107.37799, 16.377638], [107.378189, 16.377358], [107.378689, 16.377385], [107.379037, 16.377191], [107.379967, 16.37617], [107.379772, 16.375753], [107.380321, 16.374877], [107.380111, 16.374477], [107.380857, 16.373679], [107.381313, 16.373511], [107.380867, 16.373198], [107.381573, 16.372782], [107.382243, 16.371949], [107.382908, 16.372073], [107.382414, 16.371434], [107.382493, 16.370379], [107.382788, 16.370311], [107.382996, 16.370562], [107.383698, 16.370265], [107.384155, 16.37082], [107.384174, 16.371402], [107.384456, 16.371266], [107.384655, 16.370856], [107.384037, 16.369855], [107.384458, 16.369291], [107.384773, 16.369441], [107.38492, 16.370094], [107.385469, 16.369895], [107.385881, 16.370522], [107.38616, 16.370627], [107.386487, 16.370497], [107.386619, 16.370063], [107.387141, 16.370293], [107.389099, 16.36965], [107.389346, 16.369228], [107.390011, 16.368871], [107.390065, 16.3684], [107.390666, 16.368207], [107.391235, 16.368909], [107.391624, 16.369042], [107.391695, 16.369452], [107.391905, 16.369445], [107.391934, 16.368807], [107.392719, 16.369059], [107.393024, 16.369503], [107.393381, 16.369664], [107.394969, 16.369308], [107.394926, 16.36975], [107.395518, 16.369977], [107.395826, 16.370297], [107.395747, 16.370873], [107.396666, 16.371412], [107.396262, 16.372615], [107.396528, 16.374415], [107.396981, 16.375665], [107.397512, 16.375974], [107.397561, 16.375388], [107.398272, 16.375521], [107.398552, 16.375427], [107.398963, 16.374932], [107.399476, 16.375583], [107.399965, 16.375698], [107.400433, 16.375459], [107.400997, 16.375449], [107.402074, 16.37587], [107.4025, 16.375822], [107.402709, 16.375473], [107.402998, 16.375375], [107.403343, 16.375356], [107.403721, 16.375644], [107.406059, 16.374962], [107.406583, 16.375134], [107.40727, 16.374742], [107.408599, 16.372939], [107.409316, 16.373155], [107.411091, 16.37425], [107.411447, 16.374818], [107.412129, 16.37511], [107.413143, 16.376083], [107.415098, 16.375984], [107.417086, 16.375607], [107.418318, 16.375689], [107.418588, 16.375965], [107.418678, 16.377392], [107.418996, 16.378106], [107.419909, 16.378356], [107.42091, 16.379612], [107.421449, 16.379881], [107.422738, 16.382482], [107.423284, 16.382956], [107.423902, 16.384014], [107.424039, 16.384676], [107.425183, 16.385867], [107.425884, 16.386354], [107.426264, 16.387117], [107.426997, 16.387998], [107.428218, 16.388373], [107.429012, 16.388347], [107.430168, 16.388062], [107.431449, 16.387352], [107.431237, 16.388565], [107.431803, 16.389739], [107.431257, 16.390657], [107.431519, 16.391179], [107.431447, 16.391426], [107.430454, 16.392585], [107.429885, 16.392859], [107.429362, 16.393583], [107.430266, 16.394266], [107.430007, 16.395542], [107.430355, 16.396276], [107.430337, 16.397108], [107.429629, 16.397613], [107.42875, 16.397734], [107.428434, 16.398485], [107.427494, 16.39924], [107.4272, 16.399967], [107.427147, 16.401329], [107.426892, 16.401844], [107.427438, 16.40297], [107.427154, 16.404049], [107.428641, 16.406379], [107.428585, 16.407232], [107.427891, 16.407616], [107.427568, 16.408104], [107.42807, 16.408385], [107.42898, 16.410492], [107.429899, 16.411074], [107.430088, 16.411668], [107.431361, 16.412718], [107.431299, 16.413111], [107.430019, 16.414777], [107.42993, 16.415139], [107.430213, 16.415978], [107.430923, 16.416377], [107.430887, 16.41814], [107.431696, 16.418902], [107.433082, 16.419714], [107.433111, 16.420539], [107.433463, 16.42156], [107.432955, 16.423566], [107.433172, 16.424801], [107.433523, 16.425437], [107.433413, 16.427235], [107.433151, 16.427854], [107.433285, 16.428452], [107.433026, 16.42961], [107.433558, 16.430803], [107.432988, 16.430806], [107.431647, 16.432537], [107.431313, 16.433519], [107.431209, 16.434594], [107.429863, 16.436228], [107.430923, 16.437579], [107.430956, 16.438829], [107.431569, 16.440386], [107.431623, 16.441486], [107.431159, 16.442822], [107.431192, 16.44332], [107.431486, 16.443835], [107.431957, 16.444002], [107.432238, 16.444438], [107.432759, 16.444602], [107.433082, 16.445082], [107.433887, 16.445405], [107.434311, 16.445281], [107.434736, 16.444392], [107.435025, 16.444412], [107.43657, 16.445699], [107.437159, 16.44688], [107.439425, 16.447749], [107.439066, 16.448746], [107.439232, 16.449341], [107.44078, 16.450811], [107.44106, 16.451742], [107.44103, 16.452479], [107.440745, 16.453117], [107.439635, 16.454332], [107.439819, 16.454946], [107.441829, 16.456395], [107.444355, 16.456964], [107.444408, 16.457161], [107.443517, 16.458116], [107.443223, 16.458906], [107.444355, 16.459544], [107.446534, 16.459938], [107.45047, 16.459915], [107.451581, 16.45939], [107.451961, 16.459018], [107.452259, 16.457598], [107.452707, 16.456993], [107.453801, 16.456759], [107.456037, 16.457979], [107.455662, 16.458687], [107.455833, 16.459046], [107.456263, 16.459277], [107.457157, 16.45933], [107.457662, 16.45975], [107.458169, 16.460764], [107.459095, 16.460952], [107.459595, 16.460384], [107.460832, 16.459852], [107.461381, 16.459026], [107.462854, 16.458034], [107.464281, 16.457687], [107.464357, 16.458385], [107.464526, 16.459493], [107.463553, 16.460218], [107.463154, 16.460881], [107.46192, 16.461792], [107.461353, 16.462582], [107.460291, 16.465345], [107.460275, 16.467522], [107.459449, 16.469874], [107.458339, 16.470556], [107.458031, 16.471172], [107.458114, 16.471765], [107.459917, 16.472631], [107.46169, 16.474023], [107.463519, 16.474696], [107.46398, 16.475699], [107.465633, 16.476598], [107.4694, 16.480314], [107.470509, 16.481039], [107.470635, 16.481354], [107.470931, 16.481151], [107.471125, 16.481553], [107.471482, 16.481446], [107.471824, 16.483126], [107.471753, 16.484025], [107.472198, 16.484496], [107.472352, 16.484529], [107.472868, 16.484042], [107.473298, 16.484106], [107.474681, 16.483163], [107.475057, 16.483542], [107.476499, 16.483827], [107.480424, 16.486152], [107.484774, 16.489192], [107.4850815, 16.4894505], [107.488479, 16.492306], [107.489528, 16.492835], [107.490828, 16.493821], [107.492856, 16.494796], [107.492978, 16.494905], [107.492784, 16.495719], [107.493353, 16.495762], [107.493387, 16.496276], [107.494178, 16.497333], [107.494047, 16.498067], [107.495223, 16.498876], [107.497369, 16.501157], [107.4999308, 16.503045], [107.505076, 16.506837], [107.504055, 16.507825], [107.504015, 16.508443], [107.503406, 16.508741], [107.501841, 16.51066], [107.501309, 16.511614], [107.501047, 16.512579], [107.50014, 16.512278], [107.498644, 16.514235], [107.49736, 16.51363], [107.496887, 16.514079], [107.496551, 16.514709], [107.496843, 16.515062], [107.497071, 16.514731], [107.497556, 16.514979], [107.49761, 16.515622], [107.497932, 16.515768], [107.497831, 16.516139], [107.496616, 16.516092], [107.496375, 16.516192], [107.496552, 16.51668], [107.495017, 16.516973], [107.494953, 16.518048], [107.4950998, 16.5184085], [107.495334, 16.518984], [107.495507, 16.520421], [107.496441, 16.520586], [107.496649, 16.522866], [107.4974116, 16.5241181], [107.49759, 16.524411], [107.497767, 16.525125], [107.497342, 16.525985], [107.496118, 16.525438], [107.49511, 16.525219], [107.4882, 16.524629], [107.48672, 16.524654], [107.4838659, 16.5250303], [107.480409, 16.525486], [107.479116, 16.525876], [107.477243, 16.527156], [107.475285, 16.529138], [107.4718469, 16.5348883], [107.471019, 16.536273], [107.468412, 16.539528], [107.465436, 16.542406], [107.461348, 16.545864], [107.460867, 16.546144], [107.4601158, 16.5461691], [107.45931, 16.546196], [107.457249, 16.545309], [107.452127, 16.541555], [107.4492239, 16.5387754], [107.443638, 16.533427], [107.442682, 16.532038], [107.442558, 16.529384], [107.442719, 16.526572], [107.443573, 16.522587], [107.4440563, 16.52135], [107.444075, 16.521302], [107.444256, 16.519674], [107.443685, 16.518482], [107.4407924, 16.5143958], [107.439221, 16.512176], [107.436507, 16.506987], [107.435948, 16.502655], [107.435928, 16.501066], [107.436383, 16.497162], [107.436316, 16.494205], [107.435283, 16.486248], [107.434967, 16.485668], [107.434864, 16.483763], [107.434536, 16.481981], [107.434071, 16.480721], [107.434249, 16.480373], [107.435154, 16.479923], [107.438241, 16.479346], [107.439112, 16.478943], [107.439759, 16.477554], [107.44016, 16.473649], [107.440683, 16.471899], [107.440168, 16.471396], [107.437148, 16.47049], [107.434358, 16.468924], [107.432261, 16.468775], [107.431628, 16.468567], [107.431346, 16.468307], [107.430824, 16.467193], [107.430657, 16.465125], [107.430204, 16.464328], [107.429562, 16.463961], [107.428487, 16.46392], [107.426001, 16.462658], [107.425055, 16.461751], [107.424107, 16.461242], [107.423526, 16.459829], [107.422904, 16.459071], [107.422824, 16.458206], [107.424338, 16.45481], [107.424494, 16.454134], [107.424406, 16.453729], [107.422945, 16.452608], [107.42042, 16.451471], [107.419063, 16.451185], [107.418293, 16.451563], [107.417542, 16.451517], [107.415873, 16.450872], [107.41525, 16.450268], [107.414965, 16.449414], [107.415016, 16.446077], [107.414407, 16.444692], [107.414231, 16.442694], [107.414304, 16.441331], [107.414562, 16.439967], [107.414895, 16.439199], [107.416312, 16.437197], [107.417885, 16.434316], [107.415641, 16.432255], [107.415291, 16.432241], [107.414384, 16.432664], [107.412933, 16.433991], [107.412267, 16.435577], [107.412148, 16.437205], [107.411139, 16.439154], [107.410656, 16.439599], [107.409632, 16.440123], [107.408825, 16.440226], [107.407767, 16.440065], [107.407064, 16.439559], [107.406579, 16.438905], [107.405943, 16.437217], [107.405496, 16.435414], [107.405787, 16.434452], [107.406328, 16.433761], [107.406445, 16.431858], [107.405678, 16.42988], [107.404876, 16.429584], [107.404348, 16.429694], [107.403027, 16.430596], [107.402886, 16.431936], [107.402489, 16.433156], [107.402964, 16.434217], [107.40317, 16.435476], [107.403236, 16.436128], [107.402993, 16.43664], [107.402668, 16.436838], [107.401281, 16.437036], [107.399656, 16.438202], [107.398791, 16.438281], [107.395095, 16.437669], [107.394759, 16.437377], [107.394632, 16.435927], [107.394827, 16.434306], [107.395712, 16.431432], [107.395772, 16.42911], [107.395341, 16.428375], [107.394701, 16.427842], [107.394237, 16.427642], [107.393337, 16.427594], [107.392188, 16.426266], [107.391875, 16.42551], [107.391487, 16.424273], [107.391595, 16.423626], [107.391814, 16.423181], [107.392564, 16.423123], [107.392989, 16.422305], [107.392843, 16.421504], [107.392289, 16.42096], [107.389651, 16.419205], [107.38878, 16.41918], [107.388291, 16.419382], [107.387841, 16.420693], [107.387493, 16.420999], [107.386986, 16.421229], [107.385351, 16.421225], [107.38409, 16.419896], [107.383535, 16.419035], [107.381369, 16.416827], [107.38019, 16.416368], [107.379895, 16.416091], [107.377507, 16.410302], [107.376974, 16.409418], [107.376125, 16.409032], [107.375529, 16.408956], [107.369432, 16.408535], [107.368436, 16.40808], [107.368006, 16.407332], [107.367543, 16.403583], [107.367129, 16.402798], [107.366438, 16.402146], [107.366029, 16.402001]]]}}, {"type": "Feature", "properties": {"name": "Phú Vang", "osm_id": 19325234, "osm_display_name": "Xã Phú Vang, Thành phố Huế, Việt Nam"}, "geometry": {"type": "Polygon", "coordinates": [[[107.703542, 16.435037], [107.705908, 16.434771], [107.706378, 16.434673], [107.708116, 16.433262], [107.708655, 16.432911], [107.709835, 16.432013], [107.711065, 16.430854], [107.711737, 16.430029], [107.711972, 16.429628], [107.712173, 16.429138], [107.712454, 16.427961], [107.7124531, 16.4277632], [107.712451, 16.427325], [107.712256, 16.424829], [107.712275, 16.424249], [107.712399, 16.423307], [107.712586, 16.422657], [107.713067, 16.421479], [107.713696, 16.420378], [107.714269, 16.419651], [107.716341, 16.417948], [107.717562, 16.417148], [107.7178655, 16.4169896], [107.719526, 16.416123], [107.72057, 16.415646], [107.72419, 16.414249], [107.727146, 16.412892], [107.728195, 16.412311], [107.730987, 16.410509], [107.731802, 16.409782], [107.732516, 16.408789], [107.733132, 16.407412], [107.7332462, 16.4070276], [107.733609, 16.405807], [107.733989, 16.404269], [107.734792, 16.400547], [107.734977, 16.399379], [107.735705, 16.39773], [107.736187, 16.396913], [107.738023, 16.394939], [107.738912, 16.394492], [107.740261, 16.393974], [107.743233, 16.393223], [107.744131, 16.392825], [107.746273, 16.391546], [107.747051, 16.39087], [107.748384, 16.389366], [107.748908, 16.388685], [107.750015, 16.38741], [107.751281, 16.386075], [107.75261, 16.384324], [107.753093, 16.383516], [107.753427, 16.382849], [107.753716, 16.382054], [107.754356, 16.379838], [107.75453, 16.379414], [107.756269, 16.37576], [107.757101, 16.3742], [107.757282, 16.373166], [107.757238, 16.372776], [107.756854, 16.371019], [107.756823, 16.37044], [107.756926, 16.369023], [107.757267, 16.367865], [107.757985, 16.367133], [107.758567, 16.366683], [107.759133, 16.366455], [107.760044, 16.366309], [107.761585, 16.366228], [107.766339, 16.365675], [107.76695, 16.365527], [107.767415, 16.365326], [107.768895, 16.36421], [107.769968, 16.363562], [107.770686, 16.363032], [107.772653, 16.361291], [107.77372, 16.360959], [107.774679, 16.360819], [107.774848, 16.360753], [107.775257, 16.360457], [107.77536, 16.360315], [107.775602, 16.359554], [107.776613, 16.357595], [107.777361, 16.356012], [107.777519, 16.355717], [107.777719, 16.355633], [107.778195, 16.355711], [107.782753, 16.357013], [107.788228, 16.359153], [107.792261, 16.359603], [107.794886, 16.359464], [107.797424, 16.358869], [107.799034, 16.357933], [107.803995, 16.354674], [107.818713, 16.342729], [107.826002, 16.337191], [107.828526, 16.335445], [107.830137, 16.334644], [107.839606, 16.331485], [107.845162, 16.3396344], [107.845274, 16.340245], [107.844955, 16.341572], [107.844771, 16.342728], [107.844117, 16.348828], [107.843305, 16.354076], [107.8430752, 16.3547013], [107.8424294, 16.3555092], [107.8417407, 16.3560535], [107.8359419, 16.3597442], [107.8352281, 16.3605466], [107.834736, 16.361409], [107.833091, 16.366018], [107.832243, 16.367892], [107.83176, 16.369122], [107.831182, 16.370357], [107.830461, 16.37155], [107.829919, 16.372685], [107.827585, 16.378848], [107.826415, 16.381225], [107.825846, 16.38213], [107.825161, 16.382946], [107.824525, 16.383572], [107.823106, 16.384618], [107.821541, 16.385475], [107.821027, 16.385687], [107.815721, 16.387351], [107.81432, 16.387749], [107.812705, 16.388624], [107.812331, 16.389015], [107.811913, 16.389662], [107.81036, 16.392869], [107.809738, 16.393975], [107.808543, 16.395288], [107.8081656, 16.3956688], [107.807776, 16.396062], [107.804898, 16.398798], [107.802916, 16.400758], [107.800854, 16.403069], [107.799006, 16.405229], [107.796803, 16.408581], [107.795493, 16.410182], [107.795008, 16.410699], [107.793404, 16.412371], [107.786196, 16.41937], [107.7858173, 16.4197262], [107.78549, 16.42], [107.77414, 16.428303], [107.773044, 16.429087], [107.772415, 16.429633], [107.769353, 16.432912], [107.7665187, 16.4365294], [107.7642338, 16.440182], [107.76234, 16.443316], [107.761416, 16.44497], [107.760537, 16.446342], [107.760095, 16.447167], [107.758935, 16.449621], [107.757158, 16.453741], [107.75632, 16.45546], [107.755294, 16.457172], [107.753983, 16.459057], [107.752604, 16.460747], [107.751821, 16.461615], [107.750522, 16.462267], [107.743882, 16.46482], [107.741555, 16.465881], [107.740109, 16.466718], [107.737803, 16.468694], [107.736268, 16.470199], [107.732714, 16.467698], [107.731497, 16.467182], [107.730988, 16.4669], [107.729907, 16.465826], [107.72903, 16.465073], [107.725411, 16.462841], [107.725172, 16.462849], [107.724753, 16.462945], [107.724565, 16.462879], [107.722995, 16.460619], [107.722381, 16.460118], [107.720571, 16.458402], [107.720295, 16.458303], [107.719507, 16.457621], [107.719206, 16.457443], [107.719069, 16.457436], [107.718909, 16.45748], [107.718907, 16.457546], [107.71861, 16.457614], [107.717857, 16.458057], [107.717563, 16.457917], [107.717109, 16.457777], [107.716159, 16.457091], [107.7154, 16.456716], [107.71531, 16.456454], [107.715417, 16.456212], [107.714841, 16.455794], [107.713728, 16.455166], [107.713582, 16.455244], [107.713375, 16.455246], [107.713342, 16.455329], [107.713258, 16.455336], [107.713203, 16.455287], [107.713172, 16.455367], [107.711292, 16.450764], [107.71071, 16.44905], [107.71039, 16.448805], [107.710197, 16.448351], [107.709428, 16.448674], [107.709104, 16.448752], [107.709083, 16.448883], [107.707873, 16.449261], [107.707683, 16.449261], [107.707149, 16.449093], [107.7071244, 16.4493379], [107.707042, 16.450158], [107.706937, 16.45008], [107.706239, 16.449853], [107.706298, 16.449527], [107.706317, 16.44885], [107.706237, 16.448352], [107.706064, 16.448013], [107.705754, 16.447715], [107.705447, 16.447201], [107.705184, 16.445926], [107.705063, 16.445914], [107.704885, 16.444297], [107.704957, 16.443781], [107.70473, 16.443783], [107.704794, 16.442204], [107.704909, 16.441017], [107.704877, 16.439591], [107.704739, 16.438805], [107.704681, 16.438074], [107.704623, 16.438028], [107.703852, 16.438091], [107.703771, 16.436698], [107.703542, 16.435037]]]}}, {"type": "Feature", "properties": {"name": "Quảng Điền", "osm_id": 19325226, "osm_display_name": "Xã Quảng Điền, Thành phố Huế, Việt Nam"}, "geometry": {"type": "Polygon", "coordinates": [[[107.494592, 16.585713], [107.496687, 16.582111], [107.4981, 16.57862], [107.498188, 16.578257], [107.497611, 16.578086], [107.498233, 16.576743], [107.49755, 16.576159], [107.496925, 16.575233], [107.497304, 16.574857], [107.497167, 16.574038], [107.497315, 16.573998], [107.497386, 16.572004], [107.49758, 16.57163], [107.499677, 16.569542], [107.500399, 16.56789], [107.500043, 16.565525], [107.500145, 16.564891], [107.499884, 16.564645], [107.500151, 16.564074], [107.500006, 16.563577], [107.50053, 16.563356], [107.502042, 16.563517], [107.503066, 16.564186], [107.504236, 16.566212], [107.50493, 16.565909], [107.505856, 16.567997], [107.508402, 16.567678], [107.508473, 16.568259], [107.511897, 16.566723], [107.51459, 16.566578], [107.51564, 16.562234], [107.515871, 16.559968], [107.517097, 16.559782], [107.516133, 16.558068], [107.517862, 16.557538], [107.519811, 16.558067], [107.522945, 16.557895], [107.523003, 16.558028], [107.528029, 16.559052], [107.528663, 16.558919], [107.527661, 16.557057], [107.526988, 16.556299], [107.528355, 16.554387], [107.527309, 16.553704], [107.525286, 16.5529], [107.524463, 16.551208], [107.523607, 16.550395], [107.522417, 16.549695], [107.521957, 16.548284], [107.520761, 16.548271], [107.520695, 16.54734], [107.51736, 16.547216], [107.517236, 16.545272], [107.516313, 16.545198], [107.516081, 16.544853], [107.516271, 16.544519], [107.5159, 16.54432], [107.516242, 16.54344], [107.515187, 16.541961], [107.515409, 16.541564], [107.515356, 16.540726], [107.514761, 16.540819], [107.514423, 16.541067], [107.513331, 16.542987], [107.51265, 16.54358], [107.512239, 16.543669], [107.511894, 16.543541], [107.511235, 16.543014], [107.511195, 16.542339], [107.511953, 16.54006], [107.512154, 16.538819], [107.512102, 16.538045], [107.511622, 16.537205], [107.511075, 16.536598], [107.511738, 16.536053], [107.512001, 16.535591], [107.512092, 16.534096], [107.512453, 16.53343], [107.51432, 16.531724], [107.514469, 16.531397], [107.514301, 16.530947], [107.513256, 16.530232], [107.512239, 16.528903], [107.51009, 16.524692], [107.509701, 16.522975], [107.509644, 16.5218], [107.509839, 16.5209127], [107.510113, 16.519666], [107.510931, 16.518162], [107.512433, 16.516825], [107.515323, 16.51578], [107.517336, 16.51555], [107.5184774, 16.5158323], [107.518824, 16.515918], [107.519831, 16.516373], [107.520316, 16.516704], [107.520759, 16.517366], [107.520775, 16.518009], [107.520528, 16.51827], [107.520018, 16.518518], [107.518433, 16.518792], [107.517856, 16.519173], [107.517674, 16.519642], [107.518194, 16.522383], [107.519351, 16.525314], [107.520235, 16.526829], [107.521381, 16.527858], [107.522656, 16.528127], [107.523903, 16.527919], [107.525561, 16.527296], [107.527139, 16.526216], [107.528298, 16.525165], [107.529043, 16.523895], [107.529704, 16.52165], [107.529662, 16.520416], [107.53047, 16.520245], [107.5313, 16.52038], [107.531581, 16.520273], [107.534243, 16.521129], [107.534579, 16.521524], [107.534645, 16.521398], [107.535086, 16.521457], [107.535143, 16.521724], [107.536154, 16.522648], [107.536052, 16.523014], [107.5342584, 16.5227813], [107.5335557, 16.5227205], [107.5329872, 16.5227422], [107.5324739, 16.5228458], [107.5320803, 16.522971], [107.5316814, 16.5231496], [107.5312873, 16.5234067], [107.5310389, 16.5236365], [107.5308951, 16.523852], [107.5307122, 16.524197], [107.5305648, 16.5246805], [107.530507, 16.525035], [107.5304647, 16.5253995], [107.5304522, 16.5257068], [107.5304871, 16.5260562], [107.5305529, 16.5263136], [107.5306935, 16.5265352], [107.5309297, 16.5268065], [107.531223, 16.5270196], [107.535122, 16.529174], [107.536562, 16.530231], [107.538271, 16.531843], [107.540719, 16.533126], [107.543188, 16.533378], [107.5460271, 16.5332656], [107.545991, 16.533395], [107.54546, 16.534907], [107.543913, 16.53662], [107.543133, 16.5378], [107.543723, 16.540023], [107.544613, 16.54216], [107.544441, 16.54249], [107.543644, 16.542346], [107.543265, 16.542493], [107.543087, 16.542944], [107.543213, 16.543606], [107.543632, 16.544261], [107.544059, 16.544519], [107.545303, 16.543439], [107.54622, 16.543131], [107.54737, 16.543126], [107.549554, 16.544179], [107.55047, 16.544019], [107.551259, 16.544208], [107.551505, 16.545359], [107.551779, 16.545609], [107.553376, 16.544641], [107.553985, 16.54561], [107.556641, 16.54839], [107.555805, 16.548921], [107.551606, 16.550013], [107.552401, 16.553434], [107.554115, 16.556638], [107.556081, 16.55613], [107.557334, 16.556627], [107.55845, 16.556807], [107.560857, 16.557588], [107.562655, 16.553591], [107.562547, 16.553228], [107.562847, 16.55312], [107.563067, 16.552708], [107.564885, 16.55357], [107.565724, 16.554884], [107.566427, 16.555365], [107.569731, 16.557351], [107.576134, 16.560792], [107.572221, 16.566273], [107.572326, 16.566454], [107.570217, 16.570301], [107.569569, 16.571898], [107.56672, 16.582315], [107.5646148, 16.5874762], [107.5370961, 16.6033054], [107.5265899, 16.6093484], [107.5216362, 16.6122865], [107.5195341, 16.6135333], [107.5122666, 16.6172507], [107.510175, 16.600082], [107.509802, 16.598462], [107.509843, 16.595951], [107.512809, 16.596448], [107.513262, 16.593837], [107.508602, 16.594919], [107.501967, 16.593318], [107.502061, 16.592341], [107.499738, 16.59249], [107.49928, 16.592751], [107.498219, 16.592791], [107.49824, 16.592511], [107.49799, 16.592397], [107.498394, 16.590881], [107.497661, 16.589647], [107.499503, 16.586285], [107.496872, 16.585329], [107.49645, 16.585285], [107.494592, 16.585713]]]}}]}